MALLIGYONG-1            
1 58400U 23179A   24030.78197810  .00007052  00000+0  30933-3 0  9993
2 58400  97.4229 279.6429 0016891  37.0537 323.1862 15.22151273 10679
